CTC2_L_00167016-03
1 28433U 25486FC  26070.40843750  .00000000  00000+0  00000-0 0  9990
2 28433  55.0000 180.0000 0000000   0.0000   0.0000 14.89338871    14
CTC2_L_00167016-04
1 28434U 24095YH  26070.40843750  .00000000  00000+0  00000-0 0  9996
2 28434  55.0000 180.0000 0000000   0.0000  90.0000 14.89338871    14
CTC2_L_00167017-01
1 28435U 23728UL  26070.40843750  .00000000  00000+0  00000-0 0  9999
2 28435  55.0000 192.0000 0000000   0.0000 192.0000 14.89338871    11
CTC2_L_00167017-02
1 28436U 24185PD  26070.40843750  .00000000  00000+0  00000-0 0  9998
2 28436  55.0000 192.0000 0000000   0.0000 282.0000 14.89338871    12
CTC2_L_00167017-03
1 28437U 24746UO  26070.40843750  .00000000  00000+0  00000-0 0  9992
2 28437  55.0000 192.0000 0000000   0.0000  12.0000 14.89338871    14
CTC2_L_00167017-04
1 28438U 23960YT  26070.40843750  .00000000  00000+0  00000-0 0  9990
2 28438  55.0000 192.0000 0000000   0.0000 102.0000 14.89338871    15
CTC2_L_00167018-01
1 28439U 26114CU  26070.40843750  .00000000  00000+0  00000-0 0  9995
2 28439  55.0000 204.0000 0000000   0.0000 204.0000 14.89338871    13
CTC2_L_00167018-02
1 28440U 26201KL  26070.40843750  .00000000  00000+0  00000-0 0  9994
2 28440  55.0000 204.0000 0000000   0.0000 294.0000 14.89338871    14
CTC2_L_00167018-03
1 28441U 24368RR  26070.40843750  .00000000  00000+0  00000-0 0  9997
2 28441  55.0000 204.0000 0000000   0.0000  24.0000 14.89338871    16
CTC2_L_00167018-04
1 28442U 26403JW  26070.40843750  .00000000  00000+0  00000-0 0  9990
2 28442  55.0000 204.0000 0000000   0.0000 114.0000 14.89338871    17
CTC2_L_00167019-01
1 28443U 23852LB  26070.40843750  .00000000  00000+0  00000-0 0  9996
2 28443  55.0000 216.0000 0000000   0.0000 216.0000 14.89338871    14
CTC2_L_00167019-02
1 28444U 23782LE  26070.40843750  .00000000  00000+0  00000-0 0  9999
2 28444  55.0000 216.0000 0000000   0.0000 306.0000 14.89338871    15
CTC2_L_00167019-03
1 28445U 26037FZ  26070.40843750  .00000000  00000+0  00000-0 0  9996
2 28445  55.0000 216.0000 0000000   0.0000  36.0000 14.89338871    16
CTC2_L_00167019-04
1 28446U 24058NJ  26070.40843750  .00000000  00000+0  00000-0 0  9998
2 28446  55.0000 216.0000 0000000   0.0000 126.0000 14.89338871    17
CTC2_L_00167020-01
1 28447U 24024BW  26070.40843750  .00000000  00000+0  00000-0 0  9992
2 28447  55.0000 228.0000 0000000   0.0000 228.0000 14.89338871    14
CTC2_L_00167020-02
1 28448U 26138OJ  26070.40843750  .00000000  00000+0  00000-0 0  9991
2 28448  55.0000 228.0000 0000000   0.0000 318.0000 14.89338871    15
CTC2_L_00167020-03
1 28449U 26848BK  26070.40843750  .00000000  00000+0  00000-0 0  9990
2 28449  55.0000 228.0000 0000000   0.0000  48.0000 14.89338871    16
CTC2_L_00167020-04
1 28450U 24492JG  26070.40843750  .00000000  00000+0  00000-0 0  9995
2 28450  55.0000 228.0000 0000000   0.0000 138.0000 14.89338871    18
CTC2_L_00167021-01
1 28451U 23796HD  26070.40843750  .00000000  00000+0  00000-0 0  9992
2 28451  55.0000 240.0000 0000000   0.0000 240.0000 14.89338871    17
CTC2_L_00167021-02
1 28452U 24484ZZ  26070.40843750  .00000000  00000+0  00000-0 0  9998
2 28452  55.0000 240.0000 0000000   0.0000 330.0000 14.89338871    18
CTC2_L_00167021-03
1 28453U 26910NW  26070.40843750  .00000000  00000+0  00000-0 0  9995
2 28453  55.0000 240.0000 0000000   0.0000  60.0000 14.89338871    19
CTC2_L_00167021-04
1 28454U 22073LD  26070.40843750  .00000000  00000+0  00000-0 0  9992
2 28454  55.0000 240.0000 0000000   0.0000 150.0000 14.89338871    10
CTC2_L_00167022-01
1 28455U 22438M   26070.40843750  .00000000  00000+0  00000-0 0  9998
2 28455  55.0000 252.0000 0000000   0.0000 252.0000 14.89338871    17
CTC2_L_00167022-02
1 28456U 24227VS  26070.40843750  .00000000  00000+0  00000-0 0  9997
2 28456  55.0000 252.0000 0000000   0.0000 342.0000 14.89338871    18
CTC2_L_00167022-03
1 28457U 22604RC  26070.40843750  .00000000  00000+0  00000-0 0  9995
2 28457  55.0000 252.0000 0000000   0.0000  72.0000 14.89338871    19
CTC2_L_00167022-04
1 28458U 25428FJ  26070.40843750  .00000000  00000+0  00000-0 0  9993
2 28458  55.0000 252.0000 0000000   0.0000 162.0000 14.89338871    10
CTC2_L_00167023-01
1 28459U 26059ON  26070.40843750  .00000000  00000+0  00000-0 0  9995
2 28459  55.0000 264.0000 0000000   0.0000 264.0000 14.89338871    17
CTC2_L_00167023-02
1 28460U 22436HC  26070.40843750  .00000000  00000+0  00000-0 0  9992
2 28460  55.0000 264.0000 0000000   0.0000 354.0000 14.89338871    19
CTC2_L_00167023-03
1 28461U 25384BR  26070.40843750  .00000000  00000+0  00000-0 0  9998
2 28461  55.0000 264.0000 0000000   0.0000  84.0000 14.89338871    10
CTC2_L_00167023-04
1 28462U 25052GT  26070.40843750  .00000000  00000+0  00000-0 0  9991
2 28462  55.0000 264.0000 0000000   0.0000 174.0000 14.89338871    11
CTC2_L_00167024-01
1 28463U 25205JA  26070.40843750  .00000000  00000+0  00000-0 0  9992
2 28463  55.0000 276.0000 0000000   0.0000 276.0000 14.89338871    18
CTC2_L_00167024-02
1 28464U 24932LJ  26070.40843750  .00000000  00000+0  00000-0 0  9999
2 28464  55.0000 276.0000 0000000   0.0000   6.0000 14.89338871    10
CTC2_L_00167024-03
1 28465U 26478GR  26070.40843750  .00000000  00000+0  00000-0 0  9997
2 28465  55.0000 276.0000 0000000   0.0000  96.0000 14.89338871    10
CTC2_L_00167024-04
1 28466U 24819YD  26070.40843750  .00000000  00000+0  00000-0 0  9995
2 28466  55.0000 276.0000 0000000   0.0000 186.0000 14.89338871    11
CTC2_L_00167025-01
1 28467U 24014NA  26070.40843750  .00000000  00000+0  00000-0 0  9993
2 28467  55.0000 288.0000 0000000   0.0000 288.0000 14.89338871    18
CTC2_L_00167025-02
1 28468U 23046OH  26070.40843750  .00000000  00000+0  00000-0 0  9998
2 28468  55.0000 288.0000 0000000   0.0000  18.0000 14.89338871    10
CTC2_L_00167025-03
1 28469U 25847NC  26070.40843750  .00000000  00000+0  00000-0 0  9990
2 28469  55.0000 288.0000 0000000   0.0000 108.0000 14.89338871    11
CTC2_L_00167025-04
1 28470U 25643ES  26070.40843750  .00000000  00000+0  00000-0 0  9996
2 28470  55.0000 288.0000 0000000   0.0000 198.0000 14.89338871    12
CTC2_L_00167026-01
1 28471U 22812LE  26070.40843750  .00000000  00000+0  00000-0 0  9992
2 28471  55.0000 300.0000 0000000   0.0000 300.0000 14.89338871    13
CTC2_L_00167026-02
1 28472U 23825NM  26070.40843750  .00000000  00000+0  00000-0 0  9998
2 28472  55.0000 300.0000 0000000   0.0000  30.0000 14.89338871    14
CTC2_L_00167026-03
1 28473U 23934TY  26070.40843750  .00000000  00000+0  00000-0 0  9990
2 28473  55.0000 300.0000 0000000   0.0000 120.0000 14.89338871    15
CTC2_L_00167026-04
1 28474U 25461GW  26070.40843750  .00000000  00000+0  00000-0 0  9998
2 28474  55.0000 300.0000 0000000   0.0000 210.0000 14.89338871    16
CTC2_L_00167027-01
1 28475U 22112KH  26070.40843750  .00000000  00000+0  00000-0 0  9999
2 28475  55.0000 312.0000 0000000   0.0000 312.0000 14.89338871    13
CTC2_L_00167027-02
1 28476U 24104BQ  26070.40843750  .00000000  00000+0  00000-0 0  9993
2 28476  55.0000 312.0000 0000000   0.0000  42.0000 14.89338871    14
CTC2_L_00167027-03
1 28477U 26077TT  26070.40843750  .00000000  00000+0  00000-0 0  9995
2 28477  55.0000 312.0000 0000000   0.0000 132.0000 14.89338871    15
CTC2_L_00167027-04
1 28478U 22890VU  26070.40843750  .00000000  00000+0  00000-0 0  9995
2 28478  55.0000 312.0000 0000000   0.0000 222.0000 14.89338871    16
CTC2_L_00167028-01
1 28479U 25527VU  26070.40843750  .00000000  00000+0  00000-0 0  9996
2 28479  55.0000 324.0000 0000000   0.0000 324.0000 14.89338871    13
CTC2_L_00167028-02
1 28480U 25610ZO  26070.40843750  .00000000  00000+0  00000-0 0  9991
2 28480  55.0000 324.0000 0000000   0.0000  54.0000 14.89338871    15
CTC2_L_00167028-03
1 28481U 22596RM  26070.40843750  .00000000  00000+0  00000-0 0  9992
2 28481  55.0000 324.0000 0000000   0.0000 144.0000 14.89338871    16
CTC2_L_00167028-04
1 28482U 22855TO  26070.40843750  .00000000  00000+0  00000-0 0  9991
2 28482  55.0000 324.0000 0000000   0.0000 234.0000 14.89338871    17
CTC2_L_00167029-01
1 28483U 23508WT  26070.40843750  .00000000  00000+0  00000-0 0  9998
2 28483  55.0000 336.0000 0000000   0.0000 336.0000 14.89338871    14
CTC2_L_00167029-02
1 28484U 22355QP  26070.40843750  .00000000  00000+0  00000-0 0  9998
2 28484  55.0000 336.0000 0000000   0.0000  66.0000 14.89338871    15
CTC2_L_00167029-03
1 28485U 22090XK  26070.40843750  .00000000  00000+0  00000-0 0  9995
2 28485  55.0000 336.0000 0000000   0.0000 156.0000 14.89338871    16
CTC2_L_00167029-04
1 28486U 25815TG  26070.40843750  .00000000  00000+0  00000-0 0  9994
2 28486  55.0000 336.0000 0000000   0.0000 246.0000 14.89338871    17
CTC2_L_00167030-01
1 28487U 26984QR  26070.40843750  .00000000  00000+0  00000-0 0  9993
2 28487  55.0000 348.0000 0000000   0.0000 348.0000 14.89338871    14
CTC2_L_00167030-02
1 28488U 26589XC  26070.40843750  .00000000  00000+0  00000-0 0  9995
2 28488  55.0000 348.0000 0000000   0.0000  78.0000 14.89338871    15
CTC2_L_00167030-03
1 28489U 26144XM  26070.40843750  .00000000  00000+0  00000-0 0  9993
2 28489  55.0000 348.0000 0000000   0.0000 168.0000 14.89338871    16
CTC2_L_00167030-04
1 28490U 22949HA  26070.40843750  .00000000  00000+0  00000-0 0  9994
2 28490  55.0000 348.0000 0000000   0.0000 258.0000 14.89338871    18
